COMMENT,ORIGINATOR,NORAD_CAT_ID,OBJECT_NAME,OBJECT_TYPE,CLASSIFICATION_TYPE,INTLDES,EPOCH,EPOCH_MICROSECONDS,MEAN_MOTION,ECCENTRICITY,INCLINATION,RA_OF_ASC_NODE,ARG_OF_PERICENTER,MEAN_ANOMALY,EPHEMERIS_TYPE,ELEMENT_SET_NO,REV_AT_EPOCH,BSTAR,MEAN_MOTION_DOT,MEAN_MOTION_DDOT,FILE,TLE_LINE0,TLE_LINE1,TLE_LINE2,OBJECT_ID,OBJECT_NUMBER,SEMIMAJOR_AXIS,PERIOD,APOGEE,PERIGEE,DECAYED,date
GENERATED VIA SPACETRACK.ORG API,18 SPCS,48883,SPACEBEE-100,PAYLOAD,U,21059E,2023/2/21 8:31,534848,15.23322861,0.0008005,97.5784,187.1382,315.1288,44.9301,0,999,9170,0.0012374,0.00029419,0,3819225,0 SPACEBEE-100,1 48883U 21059E   23052.35526082  .00029419  00000-0  12374-2 0  9995,2 48883  97.5784 187.1382 0008005 315.1288  44.9301 15.23322861 91705,2021-059E,48883,6873.963,94.53,501.331,490.326,0,2023/4/26
GENERATED VIA SPACETRACK.ORG API,18 SPCS,48883,SPACEBEE-100,PAYLOAD,U,21059E,2023/2/21 8:31,534848,15.23322861,0.0008005,97.5784,187.1382,315.1288,44.9301,0,999,9170,0.0012374,0.00029419,0,3819803,0 SPACEBEE-100,1 48883U 21059E   23052.35526082  .00029419  00000-0  12374-2 0  9995,2 48883  97.5784 187.1382 0008005 315.1288  44.9301 15.23322861 91705,2021-059E,48883,6873.963,94.53,501.331,490.326,0,2023/4/27
GENERATED VIA SPACETRACK.ORG API,18 SPCS,48883,SPACEBEE-100,PAYLOAD,U,21059E,2023/2/21 21:08,428992,15.23357611,0.0007977,97.5786,187.6685,312.8291,47.2275,0,999,9178,0.0012976,0.00030891,0,3821329,0 SPACEBEE-100,1 48883U 21059E   23052.88075728  .00030891  00000-0  12976-2 0  9993,2 48883  97.5786 187.6685 0007977 312.8291  47.2275 15.23357611 91788,2021-059E,48883,6873.859,94.528,501.207,490.24,0,2023/4/28
GENERATED VIA SPACETRACK.ORG API,18 SPCS,48883,SPACEBEE-100,PAYLOAD,U,21059E,2023/2/22 14:28,865120,15.23396732,0.000804,97.5787,188.3979,310.2118,49.8414,0,999,9189,0.0010916,0.00025989,0,3824148,0 SPACEBEE-100,1 48883U 21059E   23053.60329705  .00025989  00000-0  10916-2 0  9995,2 48883  97.5787 188.3979 0008040 310.2118  49.8414 15.23396732 91897,2021-059E,48883,6873.741,94.526,501.132,490.079,0,2023/4/29
GENERATED VIA SPACETRACK.ORG API,18 SPCS,48883,SPACEBEE-100,PAYLOAD,U,21059E,2023/2/22 14:28,865120,15.23396732,0.000804,97.5787,188.3979,310.2118,49.8414,0,999,9189,0.0010916,0.00025989,0,3824653,0 SPACEBEE-100,1 48883U 21059E   23053.60329705  .00025989  00000-0  10916-2 0  9995,2 48883  97.5787 188.3979 0008040 310.2118  49.8414 15.23396732 91897,2021-059E,48883,6873.741,94.526,501.132,490.079,0,2023/4/30
GENERATED VIA SPACETRACK.ORG API,18 SPCS,48883,SPACEBEE-100,PAYLOAD,U,21059E,2023/2/23 7:49,615584,15.23443732,0.0008086,97.5786,189.1276,307.6511,52.3991,0,999,9200,0.0013835,0.00033035,0,3828819,0 SPACEBEE-100,1 48883U 21059E   23054.32581731  .00033035  00000-0  13835-2 0  9998,2 48883  97.5786 189.1276 0008086 307.6511  52.3991 15.23443732 92008,2021-059E,48883,6873.6,94.523,501.023,489.907,0,
GENERATED VIA SPACETRACK.ORG API,18 SPCS,48883,SPACEBEE-100,PAYLOAD,U,21059E,2023/2/23 20:25,26944,15.23474504,0.0008047,97.5787,189.6581,305.5248,54.5237,0,999,9208,0.0012753,0.00030463,0,3829723,0 SPACEBEE-100,1 48883U 21059E   23054.85127346  .00030463  00000-0  12753-2 0  9994,2 48883  97.5787 189.6581 0008047 305.5248  54.5237 15.23474504 92080,2021-059E,48883,6873.507,94.521,500.903,489.841,0,
GENERATED VIA SPACETRACK.ORG API,18 SPCS,48883,SPACEBEE-100,PAYLOAD,U,21059E,2023/2/24 9:02,378176,15.23509538,0.0008032,97.5787,190.189,303.59,56.457,0,999,9216,0.0013111,0.00031356,0,3832867,0 SPACEBEE-100,1 48883U 21059E   23055.37671734  .00031356  00000-0  13111-2 0  9998,2 48883  97.5787 190.1890 0008032 303.5900  56.4570 15.23509538 92163,2021-059E,48883,6873.402,94.519,500.787,489.746,0,
GENERATED VIA SPACETRACK.ORG API,18 SPCS,48883,SPACEBEE-100,PAYLOAD,U,21059E,2023/2/24 20:04,236096,15.2353156,0.0007998,97.5788,190.6532,301.9104,58.1354,0,999,9223,0.00099266,0.00023714,0,3835059,0 SPACEBEE-100,1 48883U 21059E   23055.83647264  .00023714  00000-0  99266-3 0  9995,2 48883  97.5788 190.6532 0007998 301.9104  58.1354 15.23531560 92237,2021-059E,48883,6873.335,94.517,500.698,489.703,0,
GENERATED VIA SPACETRACK.ORG API,18 SPCS,48883,SPACEBEE-100,PAYLOAD,U,21059E,2023/2/24 21:39,877504,15.23534953,0.0008,97.5788,190.7197,301.7229,58.3227,0,999,9224,0.00099103,0.00023677,0,3834463,0 SPACEBEE-100,1 48883U 21059E   23055.90215136  .00023677  00000-0  99103-3 0  9990,2 48883  97.5788 190.7197 0008000 301.7229  58.3227 15.23534953 92247,2021-059E,48883,6873.325,94.517,500.689,489.692,0,
GENERATED VIA SPACETRACK.ORG API,18 SPCS,48883,SPACEBEE-100,PAYLOAD,U,21059E,2023/2/25 7:06,458976,15.2355636,0.0008017,97.5787,191.118,300.4594,59.585,0,999,9230,0.0010643,0.00025455,0,3837605,0 SPACEBEE-100,1 48883U 21059E   23056.29622059  .00025455  00000-0  10643-2 0  9996,2 48883  97.5787 191.1180 0008017 300.4594  59.5850 15.23556360 92300,2021-059E,48883,6873.261,94.516,500.636,489.616,0,
GENERATED VIA SPACETRACK.ORG API,18 SPCS,48883,SPACEBEE-100,PAYLOAD,U,21059E,2023/2/25 19:43,586272,15.23584584,0.0008045,97.5786,191.6485,298.1177,61.9246,0,999,9238,0.0011779,0.00028214,0,3839003,0 SPACEBEE-100,1 48883U 21059E   23056.82163873  .00028214  00000-0  11779-2 0  9996,2 48883  97.5786 191.6485 0008045 298.1177  61.9246 15.23584584 92386,2021-059E,48883,6873.176,94.514,500.57,489.511,0,
GENERATED VIA SPACETRACK.ORG API,18 SPCS,48883,SPACEBEE-100,PAYLOAD,U,21059E,2023/2/25 22:52,483744,15.23591748,0.000802,97.5787,191.7815,297.9261,62.1163,0,999,9240,0.0012063,0.00028905,0,3839666,0 SPACEBEE-100,1 48883U 21059E   23056.95299171  .00028905  00000-0  12063-2 0  9995,2 48883  97.5787 191.7815 0008020 297.9261  62.1163 15.23591748 92403,2021-059E,48883,6873.154,94.514,500.532,489.507,0,
GENERATED VIA SPACETRACK.ORG API,18 SPCS,48883,SPACEBEE-100,PAYLOAD,U,21059E,2023/2/26 8:19,668992,15.23621015,0.000809,97.5784,192.1799,296.7851,63.2558,0,999,9246,0.0014074,0.00033787,0,3841853,0 SPACEBEE-100,1 48883U 21059E   23057.34704478  .00033787  00000-0  14074-2 0  9998,2 48883  97.5784 192.1799 0008090 296.7851  63.2558 15.23621015 92462,2021-059E,48883,6873.066,94.512,500.492,489.371,0,
GENERATED VIA SPACETRACK.ORG API,18 SPCS,48883,SPACEBEE-100,PAYLOAD,U,21059E,2023/2/26 8:19,668992,15.23621015,0.000809,97.5784,192.1799,296.7851,63.2558,0,999,9246,0.0014074,0.00033787,0,3842415,0 SPACEBEE-100,1 48883U 21059E   23057.34704478  .00033787  00000-0  14074-2 0  9998,2 48883  97.5784 192.1799 0008090 296.7851  63.2558 15.23621015 92462,2021-059E,48883,6873.066,94.512,500.492,489.371,0,
GENERATED VIA SPACETRACK.ORG API,18 SPCS,48883,SPACEBEE-100,PAYLOAD,U,21059E,2023/2/27 7:58,933664,15.23690212,0.0008066,97.5784,193.1748,293.1661,66.8726,0,999,9261,0.001797,0.00043305,0,3846396,0 SPACEBEE-100,1 48883U 21059E   23058.33215201  .00043305  00000-0  17970-2 0  9994,2 48883  97.5784 193.1748 0008066 293.1661  66.8726 15.23690212 92618,2021-059E,48883,6872.858,94.507,500.267,489.18,0,
GENERATED VIA SPACETRACK.ORG API,18 SPCS,48883,SPACEBEE-100,PAYLOAD,U,21059E,2023/2/28 2:53,861824,15.23767765,0.0008044,97.5783,193.9708,290.0126,70.0244,0,999,9273,0.0019514,0.00047164,0,3847131,0 SPACEBEE-100,1 48883U 21059E   23059.12019516  .00047164  00000-0  19514-2 0  9996,2 48883  97.5783 193.9708 0008044 290.0126  70.0244 15.23767765 92732,2021-059E,48883,6872.625,94.503,500.018,488.962,0,
GENERATED VIA SPACETRACK.ORG API,18 SPCS,48883,SPACEBEE-100,PAYLOAD,U,21059E,2023/2/28 7:36,80864,15.23785913,0.0008029,97.5782,194.1697,289.3459,70.6909,0,999,9276,0.0018526,0.00044782,0,3847542,0 SPACEBEE-100,1 48883U 21059E   23059.31720001  .00044782  00000-0  18526-2 0  9990,2 48883  97.5782 194.1697 0008029 289.3459  70.6909 15.23785913 92766,2021-059E,48883,6872.571,94.501,499.954,488.918,0,
GENERATED VIA SPACETRACK.ORG API,18 SPCS,48883,SPACEBEE-100,PAYLOAD,U,21059E,2023/2/28 21:47,769440,15.23823248,0.0008002,97.5785,194.7671,287.3156,72.7205,0,999,9285,0.0012316,0.00029719,0,3847656,0 SPACEBEE-100,1 48883U 21059E   23059.90820335  .00029719  00000-0  12316-2 0  9990,2 48883  97.5785 194.7671 0008002 287.3156  72.7205 15.23823248 92856,2021-059E,48883,6872.458,94.499,499.823,488.824,0,
GENERATED VIA SPACETRACK.ORG API,18 SPCS,48883,SPACEBEE-100,PAYLOAD,U,21059E,2023/2/28 21:47,769440,15.23823248,0.0008002,97.5785,194.7671,287.3156,72.7205,0,999,9285,0.0012316,0.00029719,0,3847790,0 SPACEBEE-100,1 48883U 21059E   23059.90820335  .00029719  00000-0  12316-2 0  9990,2 48883  97.5785 194.7671 0008002 287.3156  72.7205 15.23823248 92856,2021-059E,48883,6872.458,94.499,499.823,488.824,0,
GENERATED VIA SPACETRACK.ORG API,18 SPCS,48883,SPACEBEE-100,PAYLOAD,U,21059E,2023/3/1 8:49,223232,15.23859724,0.0007988,97.5785,195.2315,285.7355,74.3001,0,999,9292,0.0014626,0.00035372,0,3848699,0 SPACEBEE-100,1 48883U 21059E   23060.36786138  .00035372  00000-0  14626-2 0  9992,2 48883  97.5785 195.2315 0007988 285.7355  74.3001 15.23859724 92920,2021-059E,48883,6872.349,94.497,499.703,488.724,0,
GENERATED VIA SPACETRACK.ORG API,18 SPCS,48883,SPACEBEE-100,PAYLOAD,U,21059E,2023/3/1 21:26,221504,15.23890525,0.000798,97.5786,195.7625,283.8087,76.2261,0,999,9300,0.0011937,0.00028856,0,3848834,0 SPACEBEE-100,1 48883U 21059E   23060.89317386  .00028856  00000-0  11937-2 0  9996,2 48883  97.5786 195.7625 0007980 283.8087  76.2261 15.23890525 93006,2021-059E,48883,6872.256,94.495,499.605,488.637,0,
GENERATED VIA SPACETRACK.ORG API,18 SPCS,48883,SPACEBEE-100,PAYLOAD,U,21059E,2023/3/2 19:29,23360,15.23954021,0.0008052,97.5786,196.6921,281.1996,78.8336,0,999,9314,0.0013783,0.00033414,0,3849461,0 SPACEBEE-100,1 48883U 21059E   23061.81244240  .00033414  00000-0  13783-2 0  9994,2 48883  97.5786 196.6921 0008052 281.1996  78.8336 15.23954021 93144,2021-059E,48883,6872.065,94.491,499.463,488.397,0,
